[
    {
        "Altitude(m)": 586887.4330854405,
        "Argument of Periapsis(deg)": -0.007534386927657468,
        "Eccentricity": 0.0,
        "Inclination(deg)": 97.0,
        "Latitude(deg)": -60.96410065387598,
        "Longitude(deg)": 96.5311390120186,
        "Mean Anomaly(deg)": 241.53924775639584,
        "RAAN(deg)": 30.00198235120617,
        "Satellite Name": "Starlink Shell 3 1679",
        "Satellite Number": 1679,
        "Semi-Major Axis(m)": 6938478.169268562,
        "Time(s)": 190
    },
    {
        "Altitude(m)": 587087.3509260956,
        "Argument of Periapsis(deg)": -0.007930933608060494,
        "Eccentricity": 0.0,
        "Inclination(deg)": 97.0,
        "Latitude(deg)": -61.56572346314668,
        "Longitude(deg)": 96.16337304152617,
        "Mean Anomaly(deg)": 242.16472395410088,
        "RAAN(deg)": 30.002086685480176,
        "Satellite Name": "Starlink Shell 3 1679",
        "Satellite Number": 1679,
        "Semi-Major Axis(m)": 6938478.169268562,
        "Time(s)": 200
    },
    {
        "Altitude(m)": 587284.0720461612,
        "Argument of Periapsis(deg)": -0.008327480288463517,
        "Eccentricity": 0.0,
        "Inclination(deg)": 97.0,
        "Latitude(deg)": -62.166464591438796,
        "Longitude(deg)": 95.78276094996188,
        "Mean Anomaly(deg)": 242.79020015180592,
        "RAAN(deg)": 30.002191019754186,
        "Satellite Name": "Starlink Shell 3 1679",
        "Satellite Number": 1679,
        "Semi-Major Axis(m)": 6938478.169268562,
        "Time(s)": 210
    },
    {
        "Altitude(m)": 587477.5172887357,
        "Argument of Periapsis(deg)": -0.008724026968866542,
        "Eccentricity": 0.0,
        "Inclination(deg)": 97.0,
        "Latitude(deg)": -62.76627176024569,
        "Longitude(deg)": 95.38846801197323,
        "Mean Anomaly(deg)": 243.415676349511,
        "RAAN(deg)": 30.002295354028195,
        "Satellite Name": "Starlink Shell 3 1679",
        "Satellite Number": 1679,
        "Semi-Major Axis(m)": 6938478.169268562,
        "Time(s)": 220
    },
    {
        "Altitude(m)": 587667.6087836005,
        "Argument of Periapsis(deg)": -0.009120573649269567,
        "Eccentricity": 0.0,
        "Inclination(deg)": 97.0,
        "Latitude(deg)": -63.365088002771195,
        "Longitude(deg)": 94.979588133162,
        "Mean Anomaly(deg)": 244.04115254721603,
        "RAAN(deg)": 30.0023996883022,
        "Satellite Name": "Starlink Shell 3 1679",
        "Satellite Number": 1679,
        "Semi-Major Axis(m)": 6938478.169268562,
        "Time(s)": 230
    },
    {
        "Altitude(m)": 587854.269980946,
        "Argument of Periapsis(deg)": -0.009517120329672592,
        "Eccentricity": 0.0,
        "Inclination(deg)": 97.0,
        "Latitude(deg)": -63.9628511405693,
        "Longitude(deg)": 94.55513677525357,
        "Mean Anomaly(deg)": 244.66662874492107,
        "RAAN(deg)": 30.00250402257621,
        "Satellite Name": "Starlink Shell 3 1679",
        "Satellite Number": 1679,
        "Semi-Major Axis(m)": 6938478.169268562,
        "Time(s)": 240
    },
    {
        "Altitude(m)": 588037.4256844273,
        "Argument of Periapsis(deg)": -0.009913667010075618,
        "Eccentricity": 0.0,
        "Inclination(deg)": 97.0,
        "Latitude(deg)": -64.55949319074038,
        "Longitude(deg)": 94.11404141767933,
        "Mean Anomaly(deg)": 245.29210494262608,
        "RAAN(deg)": 30.002608356850217,
        "Satellite Name": "Starlink Shell 3 1679",
        "Satellite Number": 1679,
        "Semi-Major Axis(m)": 6938478.169268562,
        "Time(s)": 250
    },
    {
        "Altitude(m)": 588217.0020836452,
        "Argument of Periapsis(deg)": -0.010310213690478642,
        "Eccentricity": 0.0,
        "Inclination(deg)": 97.0,
        "Latitude(deg)": -65.15493969297312,
        "Longitude(deg)": 93.65513244578719,
        "Mean Anomaly(deg)": 245.9175811403312,
        "RAAN(deg)": 30.002712691124227,
        "Satellite Name": "Starlink Shell 3 1679",
        "Satellite Number": 1679,
        "Semi-Major Axis(m)": 6938478.169268562,
        "Time(s)": 260
    },
    {
        "Altitude(m)": 588392.9267859913,
        "Argument of Periapsis(deg)": -0.010706760370881667,
        "Eccentricity": 0.0,
        "Inclination(deg)": 97.0,
        "Latitude(deg)": -65.74910894384685,
        "Longitude(deg)": 93.17713279620638,
        "Mean Anomaly(deg)": 246.54305733803616,
        "RAAN(deg)": 30.002817025398244,
        "Satellite Name": "Starlink Shell 3 1679",
        "Satellite Number": 1679,
        "Semi-Major Axis(m)": 6938478.169268562,
        "Time(s)": 270
    },
    {
        "Altitude(m)": 588565.1288478252,
        "Argument of Periapsis(deg)": -0.011103307051284692,
        "Eccentricity": 0.0,
        "Inclination(deg)": 97.0,
        "Latitude(deg)": -66.34191112357898,
        "Longitude(deg)": 92.67864466542092,
        "Mean Anomaly(deg)": 247.16853353574126,
        "RAAN(deg)": 30.00292135967225,
        "Satellite Name": "Starlink Shell 3 1679",
        "Satellite Number": 1679,
        "Semi-Major Axis(m)": 6938478.169268562,
        "Time(s)": 280
    },
    {
        "Altitude(m)": 588733.5388050213,
        "Argument of Periapsis(deg)": -0.011499853731687715,
        "Eccentricity": 0.0,
        "Inclination(deg)": 97.0,
        "Latitude(deg)": -66.93324729773222,
        "Longitude(deg)": 92.15813609785239,
        "Mean Anomaly(deg)": 247.7940097334463,
        "RAAN(deg)": 30.00302569394626,
        "Satellite Name": "Starlink Shell 3 1679",
        "Satellite Number": 1679,
        "Semi-Major Axis(m)": 6938478.169268562,
        "Time(s)": 290
    },
    {
        "Altitude(m)": 588898.0887028218,
        "Argument of Periapsis(deg)": -0.011896400412090741,
        "Eccentricity": 0.0,
        "Inclination(deg)": 97.0,
        "Latitude(deg)": -67.52300827320364,
        "Longitude(deg)": 91.61392569837801,
        "Mean Anomaly(deg)": 248.41948593115134,
        "RAAN(deg)": 30.00313002822027,
        "Satellite Name": "Starlink Shell 3 1679",
        "Satellite Number": 1679,
        "Semi-Major Axis(m)": 6938478.169268562,
        "Time(s)": 300
    },
    {
        "Altitude(m)": 589058.7121250349,
        "Argument of Periapsis(deg)": -0.012292947092493765,
        "Eccentricity": 0.0,
        "Inclination(deg)": 97.0,
        "Latitude(deg)": -68.11107328398255,
        "Longitude(deg)": 91.04416367647902,
        "Mean Anomaly(deg)": 249.04496212885638,
        "RAAN(deg)": 30.003234362494275,
        "Satellite Name": "Starlink Shell 3 1679",
        "Satellite Number": 1679,
        "Semi-Major Axis(m)": 6938478.169268562,
        "Time(s)": 310
    },
    {
        "Altitude(m)": 589215.3442225265,
        "Argument of Periapsis(deg)": -0.012689493772896788,
        "Eccentricity": 0.0,
        "Inclination(deg)": 97.0,
        "Latitude(deg)": -68.69730847756146,
        "Longitude(deg)": 90.4468119245948,
        "Mean Anomaly(deg)": 249.67043832656142,
        "RAAN(deg)": 30.003338696768285,
        "Satellite Name": "Starlink Shell 3 1679",
        "Satellite Number": 1679,
        "Semi-Major Axis(m)": 6938478.169268562,
        "Time(s)": 320
    },
    {
        "Altitude(m)": 589367.9217410241,
        "Argument of Periapsis(deg)": -0.013086040453299813,
        "Eccentricity": 0.0,
        "Inclination(deg)": 97.0,
        "Latitude(deg)": -69.28156516734701,
        "Longitude(deg)": 89.81962124552673,
        "Mean Anomaly(deg)": 250.2959145242665,
        "RAAN(deg)": 30.003443031042295,
        "Satellite Name": "Starlink Shell 3 1679",
        "Satellite Number": 1679,
        "Semi-Major Axis(m)": 6938478.169268562,
        "Time(s)": 330
    },
    {
        "Altitude(m)": 589516.3830482033,
        "Argument of Periapsis(deg)": -0.01348258713370284,
        "Eccentricity": 0.0,
        "Inclination(deg)": 97.0,
        "Latitude(deg)": -69.86367780975449,
        "Longitude(deg)": 89.16010378847038,
        "Mean Anomaly(deg)": 250.92139072197148,
        "RAAN(deg)": 30.0035473653163,
        "Satellite Name": "Starlink Shell 3 1679",
        "Satellite Number": 1679,
        "Semi-Major Axis(m)": 6938478.169268562,
        "Time(s)": 340
    },
    {
        "Altitude(m)": 589660.6681600525,
        "Argument of Periapsis(deg)": -0.013879133814105863,
        "Eccentricity": 0.0,
        "Inclination(deg)": 97.0,
        "Latitude(deg)": -70.44346165664338,
        "Longitude(deg)": 88.46550323061385,
        "Mean Anomaly(deg)": 251.54686691967655,
        "RAAN(deg)": 30.00365169959031,
        "Satellite Name": "Starlink Shell 3 1679",
        "Satellite Number": 1679,
        "Semi-Major Axis(m)": 6938478.169268562,
        "Time(s)": 350
    },
    {
        "Altitude(m)": 589800.7187665168,
        "Argument of Periapsis(deg)": -0.01427568049450889,
        "Eccentricity": 0.0,
        "Inclination(deg)": 97.0,
        "Latitude(deg)": -71.02071002409926,
        "Longitude(deg)": 87.73276063625288,
        "Mean Anomaly(deg)": 252.1723431173816,
        "RAAN(deg)": 30.00375603386432,
        "Satellite Name": "Starlink Shell 3 1679",
        "Satellite Number": 1679,
        "Semi-Major Axis(m)": 6938478.169268562,
        "Time(s)": 360
    },
    {
        "Altitude(m)": 589936.4782564143,
        "Argument of Periapsis(deg)": -0.014672227174911913,
        "Eccentricity": 0.0,
        "Inclination(deg)": 97.0,
        "Latitude(deg)": -71.59519110695916,
        "Longitude(deg)": 86.95847385579015,
        "Mean Anomaly(deg)": 252.79781931508663,
        "RAAN(deg)": 30.003860368138326,
        "Satellite Name": "Starlink Shell 3 1679",
        "Satellite Number": 1679,
        "Semi-Major Axis(m)": 6938478.169268562,
        "Time(s)": 370
    }
]